{"type":"FeatureCollection","name":"Glasgow City 1 km buffer","crs":{"type":"name","properties":{"name":"urn:ogc:def:crs:EPSG::27700"}},"features":[{"type":"Feature","properties":{"name":"Glasgow City 1 km buffer","source":"Derived from Ordnance Survey Boundary-Line; OGL v3.0"},"geometry":{"type":"Polygon","coordinates":[[[260448.6964999996,655462.5989999995],[260383.29339999985,655464.7401],[260318.17030000035,655471.1541000009],[260253.60620000027,655481.8136999998],[260189.8775000004,655496.6732000001],[260127.25700000022,655515.6688999999],[260066.0131000001,655538.7194999997],[260045.7871000003,655547.3590999991],[260013.99409999978,655561.3551000003],[259974.61479999963,655579.7223000005],[259916.90350000001,655610.5695999991],[259878.09929999989,655634.6995999999],[259862.80250000022,655634.2999000009],[259797.39940000046,655636.4409999996],[259732.27630000003,655642.8550000004],[259667.71219999995,655653.5145999994],[259603.9835000001,655668.3740999997],[259541.3629999999,655687.3697999995],[259480.11909999978,655710.4203999992],[259420.51379999984,655737.4272000007],[259362.80250000022,655768.2744999994],[259307.23230000027,655802.8302999996],[259254.04110000003,655840.9465999994],[259203.45669999998,655882.4601000007],[259158.95249999966,655924.1427999996],[259157.88659999985,655923.9171999991],[259093.32249999978,655913.2576000001],[259028.19940000027,655906.8435999993],[258962.79629999958,655904.7025000006],[258897.39319999982,655906.8435999993],[258832.2701000003,655913.2576000001],[258767.70600000024,655923.9171999991],[258703.97730000038,655938.7766999993],[258641.35680000018,655957.7723999992],[258580.11290000007,655980.8230000008],[258520.50760000013,656007.8298000004],[258462.79629999958,656038.6771000009],[258459.00019999966,656041.0376999993],[258420.32770000026,656034.6527999993],[258371.1152999997,656029.4090999998],[258361.3119000001,656028.6093000006],[258345.4012000002,656027.4389999993],[258279.99810000043,656025.2979000006],[258214.59499999974,656027.4389999993],[258149.47190000024,656033.8530000001],[258084.90780000016,656044.5125999991],[258021.1791000003,656059.3720999993],[257975.28729999997,656072.8530000001],[257962.78780000005,656076.8519000001],[257946.0591000002,656082.3666999992],[257896.9009999996,656100.5033],[257894.17470000032,656101.5910999998],[257891.36569999997,656102.443],[257860.16199999955,656112.4681000002],[257841.87019999977,656118.8757000007],[257833.56740000006,656121.8748000003],[257790.6152999997,656138.5177999996],[257731.00999999978,656165.5245999992],[257673.29870000016,656196.3718999997],[257617.7285000002,656230.9276999999],[257564.53729999997,656269.0439999998],[257513.95289999992,656310.5574999992],[257466.19189999998,656355.2905000001],[257421.45889999997,656403.0515000001],[257394.23369999975,656435.4540999997],[257376.2139999997,656457.8461000007],[257365.7089999998,656468.5160000008],[257326.45940000005,656510.7507000007],[257284.9458999997,656561.3351000007],[257246.82959999982,656614.5263],[257212.27379999962,656670.0965],[257181.42650000006,656727.8078000005],[257154.41970000044,656787.4131000005],[257132.7466000002,656844.6271000002],[257130.36849999987,656851.5361000001],[257127.83880000003,656858.3911000006],[257119.06740000006,656883.1570999995],[257100.0717000002,656945.7775999997],[257085.21219999995,657009.5063000005],[257079.23120000027,657045.7326999996],[257069.22339999955,657068.1127000004],[257046.17279999983,657129.3565999996],[257036.59300000034,657159.0962000005],[257035.1467000004,657163.8387000002],[257026.47130000032,657178.5010000002],[257002.08800000045,657223.3391999993],[256990.89120000042,657245.2429000009],[256984.4271999998,657258.1160000004],[256957.42040000018,657317.7213000003],[256934.36980000045,657378.9651999995],[256915.37409999967,657441.5856999997],[256900.51460000034,657505.3144000005],[256889.85500000045,657569.8784999996],[256883.44099999964,657635.0015999991],[256881.29989999998,657700.4046999998],[256883.44099999964,657765.8078000005],[256889.85500000045,657830.9309],[256900.51460000034,657895.4949999992],[256915.37409999967,657959.2237],[256922.89410000015,657984.0139000006],[256924.1643000003,657991.7348999996],[256930.1144000003,658024.4880999997],[256944.97389999963,658088.2168000005],[256963.96960000042,658150.8373000007],[256987.02020000014,658212.0811999999],[257014.02699999977,658271.6864999998],[257044.87430000026,658329.3978000004],[257052.74199999962,658342.0501000006],[257042.2441999996,658354.8417000007],[257004.12789999973,658408.0329],[256969.57210000046,658463.6031],[256938.72479999997,658521.3144000005],[256911.71800000034,658580.9197000004],[256888.6673999997,658642.1635999996],[256869.67169999983,658704.7840999998],[256854.81219999958,658768.5128000006],[256844.15259999968,658833.0768999998],[256842.66669999994,658848.1635999996],[256810.23199999984,658868.3328000009],[256757.0407999996,658906.4491000008],[256706.45639999956,658947.9626000002],[256697.2315999996,658956.6024999991],[256684.3702999996,658964.6697000004],[256656.26669999957,658944.5309999995],[256600.6964999996,658909.9751999993],[256581.59829999972,658899.2260999996],[256577.5906999996,658897.0280000009],[256573.6964999996,658894.6347000003],[256550.09659999982,658880.5735999998],[256492.3853000002,658849.7262999993],[256432.78000000026,658822.7194999997],[256371.53610000014,658799.6688999999],[256308.91559999995,658780.6732000001],[256245.1869000001,658765.8136999998],[256180.6228,658755.1541000009],[256115.49969999958,658748.7401],[256050.09659999982,658746.5989999995],[255984.69350000005,658748.7401],[255919.57039999962,658755.1541000009],[255888.42250000034,658759.7547999993],[255887.86569999997,658759.8460000008],[255887.32519999985,658759.6842],[255859.41959999967,658751.7715000007],[255795.6908999998,658736.9120000005],[255731.12679999974,658726.2523999996],[255666.00370000023,658719.8384000007],[255600.60059999954,658717.6973000001],[255535.19749999978,658719.8384000007],[255497.7198999999,658723.5296],[255493.2427000003,658678.0713],[255482.5831000004,658613.5072000008],[255467.72360000014,658549.7785],[255448.7279000003,658487.1579999998],[255425.67729999963,658425.9141000006],[255398.6705,658366.3088000007],[255367.82320000045,658308.5975000001],[255333.26740000024,658253.0273000002],[255295.15110000037,658199.8361000009],[255254.8219999997,658150.6046999991],[255254.2385999998,658149.9370000008],[254878.91729999986,657703.3870999999],[254876.26740000024,657700.2474000007],[254784.79360000044,657592.3170999996],[254774.02219999954,657579.5898000002],[254762.53699999955,657566.2586000003],[254742.7039999999,657544.3367999997],[254626.09480000008,657404.5614],[254566.92229999974,657333.5318999998],[254550.44099999964,657314.2507000007],[254505.70799999963,657266.4897000007],[254457.9469999997,657221.7566999998],[254407.36259999964,657180.2432000004],[254354.17140000034,657142.1269000005],[254298.60120000038,657107.5711000003],[254240.88989999983,657076.7237999998],[254181.2845999999,657049.7170000002],[254120.04069999978,657026.6664000005],[254057.4201999996,657007.6707000006],[253993.69149999972,656992.8112000003],[253929.12739999965,656982.1515999995],[253864.00430000015,656975.7376000006],[253798.60120000038,656973.5965],[253733.1980999997,656975.7376000006],[253668.0750000002,656982.1515999995],[253603.5109000001,656992.8112000003],[253539.78220000025,657007.6707000006],[253477.16170000006,657026.6664000005],[253421.76290000044,657047.3173999991],[253365.62150000036,657070.1575000007],[253326.2023,657086.1788999997],[253228.02139999997,657126.0769999996],[253227.7725999998,657126.1780999992],[253123.27469999995,657168.6758999992],[253117.3147,657171.1221999992],[253116.24760000035,657171.5648999996],[252945.53749999963,657242.5065000001],[252921.88669999968,657243.4591000006],[252481.27689999994,657257.9066000003],[252314.97929999977,657226.2451000009],[252294.22890000045,657222.2485000007],[252235.62490000017,657212.7555999998],[252170.50179999974,657206.3416000009],[252105.09869999997,657204.2005000003],[252039.6956000002,657206.3416000009],[251997.58490000013,657209.9968999997],[251823.78720000014,657228.7915000003],[251815.10149999987,657229.7692000009],[251471.01099999994,657270.0251000002],[251450.90579999983,657268.3438000008],[251385.50270000007,657266.2027000003],[251320.0996000003,657268.3438000008],[251254.97649999987,657274.7577999998],[251190.4123999998,657285.4174000006],[251126.68369999994,657300.2769000009],[251064.06319999974,657319.2726000007],[251002.81929999962,657342.3232000005],[250943.2139999997,657369.3300000001],[250885.50270000007,657400.1773000006],[250829.9325000001,657434.7331000008],[250776.74129999988,657472.8494000006],[250726.15689999983,657514.3629000001],[250678.3958999999,657559.0958999991],[250646.23979999963,657592.7858000007],[250644.2363,657594.9852000009],[250631.65940000024,657609.0562999994],[250590.1458999999,657659.6406999994],[250552.0296,657712.8319000006],[250517.4737999998,657768.4021000005],[250486.62650000025,657826.1133999992],[250479.9913999997,657840.7573000006],[250291.5569000002,658075.9723000005],[250278.64749999996,658092.4367999993],[250240.53120000008,658145.6280000005],[250205.97539999988,658201.1982000005],[250175.12810000032,658258.9094999991],[250148.12129999977,658318.5147999991],[250125.07070000004,658379.7587000001],[250106.0750000002,658442.3792000003],[250094.10819999967,658492.0902999993],[250093.75050000008,658493.7631999999],[250093.1431,658495.3625000007],[250081.06680000015,658528.9560000002],[250062.0711000003,658591.5765000004],[250047.21160000004,658655.3051999994],[250036.55200000014,658719.8693000004],[250030.13800000027,658784.9923999999],[250027.99689999968,658850.3955000006],[250030.13800000027,658915.7985999994],[250036.55200000014,658980.9217000008],[250047.21160000004,659045.4857999999],[250062.0711000003,659109.2145000007],[250081.06680000015,659171.8350000009],[250104.11739999987,659233.0789000001],[250131.12420000043,659292.6842],[250161.97149999999,659350.3955000006],[250196.5273000002,659405.9657000005],[250234.64360000007,659459.1568999998],[250276.15710000042,659509.7412999999],[250293.9757000003,659528.7660000008],[250283.85429999977,659590.0702],[250278.7597000003,659641.7970000003],[250272.11679999996,659658.4478999991],[250267.0131000001,659671.7441000007],[250253.66889999993,659708.6582999993],[250234.67320000008,659771.2787999995],[250219.81369999982,659835.0075000003],[250209.15409999993,659899.5715999994],[250207.21160000004,659915.2872000001],[250203.21270000003,659949.8872999996],[250198.74120000005,659999.2948000003],[250196.6001000004,660064.6978999991],[250198.74120000005,660130.1009999998],[250205.15519999992,660195.2240999993],[250215.81479999982,660259.7882000003],[250218.18929999974,660270.3696999997],[250224.76070000045,660312.6571999993],[250232.1152999997,660354.1911999993],[250246.97479999997,660417.9199000001],[250265.97049999982,660480.5404000003],[250289.02109999955,660541.7842999995],[250293.6074000001,660552.6743999999],[250309.40500000026,660589.5737999994],[250322.21899999958,660617.4159999993],[250269.0691999998,660675.2028000001],[250248.45459999982,660692.4631999992],[250200.69359999988,660737.1962000001],[250155.96059999987,660784.9572000001],[250114.44710000046,660835.5416000001],[250076.33079999965,660888.7327999994],[250041.77500000037,660944.3029999994],[250010.92769999988,661002.0142999999],[249983.92090000026,661061.6195999999],[249960.8702999996,661122.8635000009],[249941.87459999975,661185.4839999992],[249927.01510000043,661249.2127],[249916.3554999996,661313.7767999992],[249909.94149999972,661378.8999000005],[249907.80040000007,661444.3029999994],[249909.94149999972,661509.7061000001],[249916.3554999996,661574.8291999996],[249927.01510000043,661639.3933000006],[249941.87459999975,661703.1219999995],[249960.8702999996,661765.7424999997],[249983.92090000026,661826.9864000008],[250010.92769999988,661886.5917000007],[250041.77500000037,661944.3029999994],[250076.33079999965,661999.8731999993],[250107.4626000002,662043.3177000005],[250106.39919999987,662075.8023000006],[250108.54030000046,662141.2053999994],[250114.95430000033,662206.3285000008],[250125.61390000023,662270.8925999999],[250140.47339999955,662334.6213000007],[250159.46910000034,662397.2418000009],[250164.7422000002,662412.3761999998],[250284.87349999975,662748.4763999991],[250284.79750000034,662750.7990000006],[250286.9386,662816.2020999994],[250293.35259999987,662881.3252000008],[250304.01219999976,662945.8892999999],[250318.87170000002,663009.6180000007],[250337.86739999987,663072.2385000009],[250360.9179999996,663133.4824000001],[250387.92480000015,663193.0877],[250418.7720999997,663250.7990000006],[250453.32789999992,663306.3692000005],[250456.78490000032,663311.4733000007],[250463.12380000018,663327.7868000008],[250468.62980000023,663340.8180999998],[250492.32610000018,663395.8124000002],[250510.7450000001,663436.0812999997],[250526.34470000025,663468.2820999995],[250529.4265999999,663474.5872000009],[250560.27390000038,663532.2984999996],[250594.82969999965,663587.8686999995],[250632.94600000046,663641.0599000007],[250634.54059999995,663643.0233999994],[250621.1473000003,663659.3432999998],[250603.7597000003,663682.6995999999],[250603.39410000015,663683.2058000006],[250602.85639999993,663683.5230999999],[250555.4297000002,663713.3258999996],[250502.23849999998,663751.4421999995],[250451.65409999993,663792.9557000007],[250403.8931,663837.6886999998],[250359.16009999998,663885.4496999998],[250317.64659999963,663936.0340999998],[250279.53029999975,663989.2252999991],[250244.97449999955,664044.7954999991],[250214.1272,664102.5067999996],[250187.12040000036,664162.1120999996],[250164.0697999997,664223.3560000006],[250145.07409999985,664285.9765000008],[250130.2145999996,664349.7051999997],[250119.5549999997,664414.2693000007],[250113.14099999983,664479.3924000002],[250110.99990000017,664544.7954999991],[250113.14099999983,664610.1985999998],[250119.5549999997,664675.3216999993],[250130.2145999996,664739.8858000003],[250131.30850000028,664745.2014000006],[250123.80090000015,664778.2091000006],[250123.4757000003,664779.6436000001],[250116.13219999988,664812.1506999992],[250102.75299999956,664861.5678000003],[250102.07610000018,664864.0810000002],[250087.21659999993,664927.8096999992],[250076.55700000003,664992.3738000002],[250070.14300000016,665057.4968999997],[250068.00189999957,665122.9000000004],[250069.75320000015,665182.0572999995],[250070.5530000003,665195.5535000004],[250070.9428000003,665201.7993000001],[250077.35680000018,665266.9223999996],[250088.01640000008,665331.4865000006],[250102.87590000033,665395.2151999995],[250121.8716000002,665457.8356999997],[250144.9221999999,665519.0796000008],[250171.92899999954,665578.6849000007],[250202.77630000003,665636.3961999994],[250237.33210000023,665691.9663999993],[250275.4484000001,665745.1576000005],[250316.96190000046,665795.7420000006],[250361.69489999954,665843.5030000005],[250409.4559000004,665888.2359999996],[250460.04030000046,665929.7495000008],[250513.23149999976,665967.8658000007],[250568.80169999972,666002.4215999991],[250626.51300000027,666033.2688999996],[250686.1183000002,666060.2756999992],[250747.36220000032,666083.3263000008],[250809.9826999996,666102.3220000006],[250873.71140000038,666117.1815000009],[250938.27550000045,666127.8410999998],[251003.39859999996,666134.2551000006],[251068.80169999972,666136.3961999994],[251090.27859999985,666136.1655000001],[251150.78079999983,666134.8658000007],[251194.7070000004,666132.9553999994],[251204.2405000003,666132.2848000005],[251209.82650000043,666131.8650000002],[251274.69409999996,666138.2539000008],[251340.09719999973,666140.3949999996],[251405.50030000042,666138.2539000008],[251470.62339999992,666131.8399],[251515.3967000004,666124.8422999997],[251516.6052000001,666126.7534999996],[251530.33079999965,666147.8659000006],[251568.44710000046,666201.0570999999],[251598.52109999955,666238.3642999995],[251693.29729999974,666350.3350000009],[251692.97690000013,666353.6735999994],[251690.5449000001,666383.7972999997],[251690.04810000025,666391.8774999995],[251689.79389999993,666396.3052999992],[251689.31230000034,666400.7140999995],[251685.54009999987,666443.9001000002],[251683.45079999976,666499.1242999993],[251683.43450000044,666500.7302999999],[251681.82459999993,666515.0900999997],[251677.7402999997,666561.0965],[251675.59920000006,666626.4996000007],[251676.41949999984,666666.9963000007],[251676.43840000033,666667.4627999999],[251675.4422000004,666668.0888],[251651.93209999986,666683.3257999998],[251598.74089999963,666721.4420999996],[251548.15649999958,666762.9556000009],[251528.14010000043,666780.9923],[251524.96779999975,666783.9291999992],[251521.6436999999,666786.6932999995],[251501.65440000035,666803.7639000006],[251475.49899999984,666827.5321999993],[251456.9489000002,666844.9977000002],[251346.41729999986,666940.4471000005],[251340.65309999976,666945.4633000009],[251292.89209999982,666990.1963],[251248.15909999982,667037.9572999999],[251238.26329999976,667049.4151000008],[251237.10950000025,667050.7717000004],[251235.77049999963,667051.9459000006],[251235.75119999982,667051.9627999999],[251187.99019999988,667096.6958000008],[251185.58829999994,667099.1059000008],[251122.62079999968,667162.5033999998],[251067.4667999996,667204.5021000002],[251064.5351999998,667206.7431000005],[251013.95079999976,667248.2566],[250966.18979999982,667292.9896000009],[250963.10919999983,667296.0836999994],[250928.71079999954,667330.7838000003],[250891.1486999998,667371.0644000005],[250853.9338999996,667394.4321999997],[250800.7427000003,667432.5484999996],[250753.21050000004,667471.3961999994],[250720.67459999956,667499.6970000006],[250620.75349999964,667575.5310999993],[250616.53980000038,667578.7467],[250565.95540000033,667620.2601999994],[250555.11710000038,667629.9050999992],[250470.19259999972,667706.5898000002],[250441.54650000017,667723.2047000006],[250438.4249999998,667724.8642999995],[250211.4617999997,667813.7158000004],[250193.3191999998,667821.0237000007],[250166.51819999982,667832.5861000009],[250015.01520000026,667900.5866999999],[249982.2109000003,667916.0310999993],[249924.49959999975,667946.8783999998],[249868.9293999998,667981.4342],[249815.73819999956,668019.5504999999],[249765.15380000044,668061.0639999993],[249717.39279999956,668105.7970000003],[249672.65979999956,668153.5580000002],[249631.14630000014,668204.1424000002],[249593.03000000026,668257.3335999995],[249558.47420000006,668312.9037999995],[249527.62689999957,668370.6151],[249500.62009999994,668430.2204],[249477.56950000022,668491.4642999992],[249458.57380000036,668554.0847999994],[249443.7143000001,668617.8135000002],[249433.0547000002,668682.3775999993],[249426.64070000034,668747.5007000007],[249424.49959999975,668812.9037999995],[249426.64070000034,668878.3069000002],[249433.0547000002,668943.4299999997],[249443.7143000001,669007.9941000007],[249458.57380000036,669071.7227999996],[249477.56950000022,669134.3432999998],[249500.62009999994,669195.5872000009],[249527.62689999957,669255.1925000008],[249558.47420000006,669312.9037999995],[249593.03000000026,669368.4739999995],[249631.14630000014,669421.6652000006],[249672.65979999956,669472.2496000007],[249714.91029999964,669517.5194000006],[249742.20969999954,669545.0114999991],[249744.6922000004,669547.5026999991],[249792.45320000034,669592.2357000001],[249803.38650000002,669601.6851000004],[249804.9765999997,669603.0394000001],[249806.53139999975,669604.6958000008],[249806.78940000013,669604.9741999991],[249809.0133999996,669607.7299000006],[249835.35960000008,669639.0417999998],[249880.0926000001,669686.8027999997],[249927.85360000003,669731.5358000007],[249978.43800000008,669773.0493000001],[250031.62920000032,669811.1656],[250087.19940000027,669845.7214000002],[250144.9106999999,669876.5687000006],[250190.06329999957,669897.3693000004],[250219.78660000023,669925.2313000001],[250220.77109999955,669928.2359999996],[250243.8217000002,669989.4799000006],[250270.82849999983,670049.0852000006],[250286.01960000023,670077.5057999995],[250074.7313000001,670361.6231999993],[249908.5025000004,670583.4889000002],[249877.32799999975,670627.5251000002],[249842.77219999954,670683.0953000002],[249811.92489999998,670740.8066000007],[249784.91810000036,670800.4119000006],[249761.8674999997,670861.6557999998],[249742.87179999985,670924.2763],[249728.0122999996,670988.0050000008],[249717.3526999997,671052.5691],[249710.93869999982,671117.6921999995],[249708.79760000017,671183.0953000002],[249710.93869999982,671248.4984000009],[249717.3526999997,671313.6215000004],[249728.0122999996,671378.1855999995],[249742.87179999985,671441.9143000003],[249761.8674999997,671504.5348000005],[249784.91810000036,671565.7786999997],[249803.42709999997,671606.6291000005],[249804.5449000001,671627.3000000007],[249810.95889999997,671692.4231000002],[249821.61849999987,671756.9871999994],[249834.58079999965,671813.5287999995],[249837.45239999983,671824.5736999996],[249840.31709999964,671835.6204000004],[249842.37320000026,671843.4193999991],[249847.91160000023,671863.2688999996],[249851.5220999997,671875.7116999999],[249851.8384999996,671882.7069000006],[249857.43010000046,671941.4230000004],[249858.93070000038,671953.4195000008],[249859.75310000032,671959.8265000004],[249870.41270000022,672024.3905999996],[249885.27219999954,672088.1193000004],[249904.26790000033,672150.7398000006],[249927.31850000005,672211.9836999997],[249954.32529999968,672271.5889999997],[249983.1780000003,672325.8295000009],[249987.21609999985,672332.8889000006],[249991.1361999996,672340.0144999996],[250001.27520000003,672358.0021000002],[250020.25140000042,672389.5166999996],[250023.45370000042,672394.6198999994],[250026.4890999999,672399.8241000008],[250038.01790000033,672419.0900999997],[250043.03949999996,672427.2719],[250050.4277999997,672439.4826999996],[250074.53330000024,672477.3740999997],[250112.64960000012,672530.5653000008],[250154.16309999954,672581.1497000009],[250198.89609999955,672628.9107000008],[250246.65710000042,672673.6436999999],[250297.24149999954,672715.1571999993],[250331.69620000012,672740.4441],[250348.79650000017,672752.4406000003],[250367.53299999982,672765.2699999996],[250423.10319999978,672799.8257999998],[250432.95349999983,672805.4386999998],[250460.1540000001,672820.7344000004],[250464.27280000038,672823.0376999993],[250465.17150000017,672823.5374999996],[250508.91370000038,672846.4685999993],[250519.8152999999,672851.7628000006],[250524.5334999999,672854.0188999996],[250529.15600000042,672856.4651999995],[250554.13159999996,672869.2370999996],[250556.7039999999,672870.5073000006],[250563.33359999955,672881.1685000006],[250601.44990000036,672934.3596999999],[250642.96339999977,672984.9441],[250687.69639999978,673032.7050999999],[250735.45739999972,673077.4381000008],[250786.04179999977,673118.9516000003],[250839.233,673157.0679000001],[250894.80319999997,673191.6237000003],[250952.51449999958,673222.4710000008],[251012.11980000045,673249.4778000005],[251073.36369999964,673272.5284000002],[251135.98419999983,673291.5241],[251199.7128999997,673306.3836000003],[251235.0061999997,673312.7481999993],[251266.50229999982,673317.8466999996],[251295.77309999987,673322.1416999996],[251360.8962000003,673328.5557000004],[251426.29930000007,673330.6967999991],[251491.70239999983,673328.5557000004],[251556.82550000027,673322.1416999996],[251621.38960000034,673311.4821000006],[251682.55030000024,673297.2214000002],[251720.79710000008,673290.0653000008],[251777.29640000034,673287.7865999993],[251795.06579999998,673286.9114999995],[251967.34370000008,673276.8907999992],[252106.34289999958,673279.7049000002],[252150.17580000032,673286.9418000001],[252156.73440000042,673287.7831999995],[252236.83519999962,673297.7903000005],[252295.39969999995,673303.3629000001],[252360.8027999997,673305.5040000007],[252426.2059000004,673303.3629000001],[252491.3289999999,673296.9488999993],[252555.8931,673286.2893000003],[252619.62179999985,673271.4298],[252624.3663999997,673270.1459999997],[252625.17210000008,673269.9258999992],[252626.00650000013,673269.9639999997],[252671.60030000005,673271.0039000008],[252671.69930000044,673271.0039000008],[252737.1024000002,673268.8628000002],[252802.2254999997,673262.4487999994],[252866.78959999979,673251.7892000005],[252909.97119999956,673242.2024000008],[252912.49170000013,673241.5840000007],[252915.06049999967,673241.2146000005],[252967.7916000001,673232.1848000009],[253031.52029999997,673217.3253000006],[253094.14080000017,673198.3296000008],[253123.69170000032,673187.7785999998],[253142.89439999964,673180.5807000007],[253174.5873999996,673168.0811000001],[253234.19269999955,673141.0743000004],[253291.9040000001,673110.227],[253347.47420000006,673075.6711999997],[253400.6654000003,673037.5548999999],[253412.25030000042,673028.5296],[253425.64850000013,673017.9326000009],[253464.64800000004,672985.4443999995],[253505.35319999978,672947.6974999998],[253555.64809999987,672898.3915999997],[253562.70390000008,672891.4055000003],[253584.2296000002,672869.2035000008],[253645.2287999997,672804.3098000009],[253704.44799999986,672745.7489],[253708.41060000006,672741.8083999995],[253717.38069999963,672732.6747999992],[253719.8470999999,672731.9254999999],[253750.6372999996,672722.0260000005],[253811.8811999997,672698.9754000008],[253871.48649999965,672671.9685999993],[253923.61479999963,672644.3206999991],[253959.11799999978,672624.1263999995],[253964.70100000035,672620.9269999992],[254020.2712000003,672586.3712000009],[254073.4623999996,672548.2548999991],[254124.04679999966,672506.7413999997],[254171.8077999996,672462.0084000006],[254216.5407999996,672414.2474000007],[254258.05429999996,672363.6630000006],[254296.17059999984,672310.4717999995],[254330.72640000004,672254.9015999995],[254361.5736999996,672197.1903000008],[254388.58050000016,672137.5850000009],[254411.63109999988,672076.3410999998],[254430.62679999974,672013.7205999997],[254445.4863,671949.9919000007],[254456.1458999999,671885.4277999997],[254462.55989999976,671820.3047000002],[254464.70100000035,671754.9015999995],[254462.55989999976,671689.4985000007],[254456.1458999999,671624.3753999993],[254445.4863,671559.8113000002],[254430.62679999974,671496.0825999994],[254411.63109999988,671433.4620999992],[254388.58050000016,671372.2182],[254363.69159999955,671316.9338000007],[254363.3174999999,671316.1656999998],[254363.19159999955,671315.3206999991],[254361.6185999997,671305.2918999996],[254382.9428000003,671298.5333999991],[254411.64499999955,671288.3000000007],[254446.43910000008,671275.2938000001],[254478.98080000002,671262.4766000006],[254537.3733000001,671236.0669],[254567.0719999997,671221.4710000008],[254568.28479999956,671220.8739],[254578.74710000027,671215.2817000002],[254582.65969999973,671220.0493000001],[254627.39269999973,671267.8103],[254654.96750000026,671294.3494000006],[254683.56960000005,671320.8418000005],[254703.7558000004,671339.0357000008],[254754.34020000044,671380.5492000002],[254807.53139999975,671418.6655000001],[254816.64599999972,671424.6840000004],[254854.04559999984,671449.0869999994],[254900.50119999982,671477.6242999993],[254953.47900000028,671506.1217999998],[254956.26620000042,671507.5145999994],[254979.23120000027,671519.5492000002],[255001.11149999965,671530.6753000002],[255060.7167999996,671557.6820999999],[255121.9606999997,671580.7326999996],[255184.5811999999,671599.7283999994],[255211.59839999955,671606.5656000003],[255232.9944000002,671611.6641000006],[255269.7059000004,671619.6864],[255273.84750000015,671620.3702000007],[255273.00179999974,671646.2028000001],[255275.14290000033,671711.6059000008],[255281.5569000002,671776.7290000003],[255292.2165000001,671841.2930999994],[255307.07600000035,671905.0218000002],[255326.0717000002,671967.6423000004],[255349.12229999993,672028.8861999996],[255376.12909999955,672088.4914999995],[255384.2346999999,672104.5618999992],[255392.38329999987,672120.3620999996],[255393.41110000014,672123.7173999995],[255398.5407999996,672197.0118000004],[255404.6557,672257.7213000003],[255415.3152999999,672322.2853999995],[255430.17480000015,672386.0141000003],[255449.1705,672448.6346000005],[255454.95770000014,672465.1724999994],[255460.20069999993,672514.4991999995],[255460.23840000015,672514.8535999991],[255486.18599999975,672758.1488000005],[255512.61259999964,673038.5358000007],[255514.0683000004,673052.8739999998],[255527.07079999987,673172.3697999995],[255529.75800000038,673194.7230999991],[255540.41760000028,673259.2872000001],[255555.2770999996,673323.0159000009],[255574.27280000038,673385.6363999993],[255597.3234000001,673446.8803000003],[255624.33019999973,673506.4856000002],[255655.17750000022,673564.1969000008],[255689.73330000043,673619.7671000008],[255727.8496000003,673672.9583],[255769.36309999973,673723.5427000001],[255814.09609999973,673771.3037],[255861.85709999967,673816.0366999991],[255912.44149999972,673857.5502000004],[255965.63269999996,673895.6665000003],[256021.20289999992,673930.2223000005],[256078.91420000046,673961.0695999991],[256138.5195000004,673988.0764000006],[256199.7633999996,674011.1270000003],[256262.38389999978,674030.1227000002],[256326.11259999964,674044.9822000004],[256390.67669999972,674055.6417999994],[256455.79980000015,674062.0558000002],[256521.20289999992,674064.1969000008],[256586.60599999968,674062.0558000002],[256651.7291000001,674055.6417999994],[256716.2932000002,674044.9822000004],[256780.02190000005,674030.1227000002],[256842.64240000024,674011.1270000003],[256903.88630000036,673988.0764000006],[256963.4916000003,673961.0695999991],[257004.2527999999,673939.2822999991],[257159.38090000022,673913.5239000004],[257249.7433000002,673899.3511999995],[257280.89979999978,673918.7256000005],[257295.40259999968,673926.9384000003],[257306.20359999966,673932.9365999997],[257349.4121000003,673955.5711000003],[257409.01740000024,673982.5778999999],[257470.26130000036,674005.6284999996],[257532.88179999962,674024.6241999995],[257596.61050000042,674039.4836999997],[257661.17459999956,674050.1433000006],[257684.06020000018,674052.3972999994],[257700.2435999997,674055.3342000004],[257748.27550000045,674062.8497000001],[257813.39859999996,674069.2636999991],[257878.80169999972,674071.4047999997],[257920.43049999978,674070.5379000008],[257934.82629999984,674069.9381000008],[257958.60059999954,674068.6638999991],[258023.72369999997,674062.2499000002],[258081.73489999957,674052.8709999993],[258100.53369999956,674049.2620000001],[258107.08660000004,674047.9813000001],[258170.8152999999,674033.1217999998],[258233.4358000001,674014.1261],[258294.6797000002,673991.0755000003],[258354.28500000015,673964.0687000006],[258371.01580000017,673955.6221999992],[258373.13300000038,673954.5283000004],[258375.3552000001,673953.6674000006],[258396.05059999973,673945.3736000005],[258408.7067999998,673944.9593000002],[258473.82990000024,673938.5452999994],[258538.39400000032,673927.8857000005],[258602.12270000018,673913.0262000002],[258664.74320000038,673894.0305000003],[258725.98709999956,673870.9799000006],[258785.59240000043,673843.9730999991],[258811.43479999993,673830.7594000008],[258828.23000000045,673821.8618999999],[258860.09889999963,673804.2282999996],[258915.6690999996,673769.6724999994],[258968.86029999983,673731.5561999995],[259014.3574000001,673694.4738999996],[259026.15600000042,673684.2667999994],[259031.2433000002,673679.8355999999],[259079.00430000015,673635.1026000008],[259123.73730000015,673587.3416000009],[259140.16810000036,673568.1210999992],[259194.56900000013,673502.8298000004],[259219.65170000028,673471.4659000002],[259257.76800000016,673418.2747000009],[259292.32380000036,673362.7045000009],[259313.5893000001,673323.9145999998],[259321.3892000001,673308.9089000002],[259330.9709999999,673289.9875000007],[259357.97780000046,673230.3822000008],[259370.56709999964,673198.4497999996],[259381.46700000018,673169.3482000008],[259391.9282999998,673140.0366999991],[259410.92399999965,673077.4162000008],[259425.7834999999,673013.6875],[259436.4430999998,672949.1234000009],[259439.4227,672924.0482999999],[259442.42389999982,672895.7464000005],[259445.85830000043,672855.6984000001],[259447.9994000001,672790.2952999994],[259445.85830000043,672724.8922000006],[259439.44429999962,672659.7690999992],[259428.78469999973,672595.2050000001],[259413.9252000004,672531.4762999993],[259410.48539999966,672518.9639999997],[259407.3853000002,672507.9671],[259400.33609999996,672484.7186999992],[259422.45550000016,672457.7661000006],[259460.57180000003,672404.5748999994],[259495.12760000024,672349.0046999995],[259495.20579999965,672348.8693000004],[259513.90560000017,672316.4685999993],[259544.67470000032,672258.8926999997],[259571.68149999995,672199.2873999998],[259585.2633999996,672164.6932999995],[259585.38609999977,672164.3628000002],[259585.69039999973,672164.1848000009],[259636.36980000045,672132.4712000005],[259689.56099999975,672094.3549000006],[259740.1453999998,672052.8413999993],[259787.90639999975,672008.1084000003],[259832.63939999975,671960.3474000003],[259874.1529000001,671909.7630000003],[259912.26919999998,671856.5717999991],[259946.8250000002,671801.0015999991],[259950.37739999965,671794.4772999994],[259976.20260000043,671773.6970000006],[260008.6458999999,671746.4390999991],[260009.34269999992,671745.8274000008],[260034.0449000001,671724.1236000005],[260081.1091,671680.0022999998],[260125.8421,671632.2412999999],[260167.35560000036,671581.6568999998],[260205.47190000024,671528.4657000005],[260225.66110000014,671496.9922000002],[260240.85670000035,671472.2993000001],[260255.22329999972,671448.2026000004],[260286.0706000002,671390.4912999999],[260313.07739999983,671330.8859999999],[260336.12799999956,671269.6421000008],[260347.0290000001,671235.5344999991],[260347.3378999997,671234.5046999995],[260347.8861999996,671233.5798000004],[260353.72709999979,671223.5968999993],[260359.80709999986,671212.2219999991],[260398.19120000023,671205.8848000001],[260461.9199000001,671191.0252999999],[260524.5404000003,671172.0296],[260585.7843000004,671148.9790000003],[260645.38960000034,671121.9722000007],[260703.10089999996,671091.1249000002],[260758.67109999992,671056.5691],[260811.86230000015,671018.4528000001],[260862.4467000002,670976.9393000007],[260910.20770000014,670932.2062999997],[260954.94070000015,670884.4452999998],[260996.45419999957,670833.8608999997],[261034.57050000038,670780.6697000004],[261069.12629999965,670725.0995000005],[261099.97360000014,670667.3881999999],[261126.98039999977,670607.7829],[261150.03100000042,670546.5390000008],[261169.02670000028,670483.9185000006],[261183.8861999996,670420.1897999998],[261192.80169999972,670366.1894000005],[261289.8069000002,670380.3748000003],[261293.03139999975,670380.8227999993],[261349.03399999999,670389.2533999998],[261367.37079999968,670391.8405000009],[261432.49390000012,670398.2544999998],[261497.89699999988,670400.3956000004],[261563.30009999964,670398.2544999998],[261628.42320000008,670391.8405000009],[261651.50939999986,670388.5267999992],[261653.98699999973,670388.1415999997],[261655.5750000002,670388.0578000005],[261661.3864000002,670387.7619000003],[261668.12060000002,670387.5960000008],[261708.89969999995,670385.7580999993],[261774.02280000038,670379.3441000003],[261777.07100000046,670378.9379999992],[261782.2561999997,670378.2390999999],[261787.46559999976,670377.7517000008],[261818.62210000027,670374.3430000003],[261820.24540000036,670374.1395999994],[261821.88049999997,670374.1965999994],[261856.69730000012,670374.8028999995],[261922.10039999988,670372.6618000008],[261987.2235000003,670366.2478],[262038.90280000027,670357.7155000009],[262068.35419999994,670362.7813000008],[262122.46339999977,670375.8469999991],[262136.56400000025,670380.3466999996],[262149.2614000002,670384.2456],[262151.70419999957,670384.9923],[262199.7070000004,670399.5980999991],[262231.9813000001,670408.8291999996],[262295.70999999996,670423.6886999998],[262360.27410000004,670434.3483000007],[262425.39719999954,670440.7622999996],[262447.00370000023,670441.9053000007],[262467.7505999999,670461.3368999995],[262518.33499999996,670502.8504000008],[262526.3470999999,670508.9345999993],[262544.45320000034,670522.5406999998],[262589.6322999997,670554.5727999993],[262618.5723000001,670573.1976999994],[262641.9718000004,670587.6936000008],[262668.60199999996,670603.6245000008],[262726.3132999996,670634.4717999995],[262785.91860000044,670661.4785999991],[262838.4316999996,670681.5205000006],[262876.73000000045,670694.9167],[262885.46079999954,670697.9254000001],[262948.0812999997,670716.9210999999],[262963.9227,670720.9384000003],[262972.68939999957,670723.8040999994],[262978.89080000017,670725.8089000005],[262983.6244000001,670727.3222000003],[263005.82629999984,670754.8856000006],[263020.52720000036,670772.2806000002],[263032.4621000001,670786.1435000002],[263077.1951000001,670833.9045000002],[263124.95610000007,670878.6374999993],[263175.5405000001,670920.1510000005],[263228.73170000035,670958.2673000004],[263284.3019000003,670992.8231000006],[263342.0131999999,671023.6703999992],[263401.61849999987,671050.6772000007],[263462.8624,671073.7278000005],[263525.4829000002,671092.7235000003],[263589.21160000004,671107.5830000006],[263653.7757000001,671118.2425999995],[263718.8987999996,671124.6566000003],[263784.3019000003,671126.7977000009],[263849.7050000001,671124.6566000003],[263914.8280999996,671118.2425999995],[263979.39219999965,671107.5830000006],[264043.12090000045,671092.7235000003],[264105.7413999997,671073.7278000005],[264166.9852999998,671050.6772000007],[264226.59059999976,671023.6703999992],[264284.3019000003,670992.8231000006],[264338.8598999996,670958.9428000003],[264344.2604,670955.3438000008],[264345.2725999998,670954.6682999991],[264398.4638,670916.5519999992],[264449.0482000001,670875.0384999998],[264496.8092,670830.3055000007],[264541.5422,670782.5445000008],[264561.1727999998,670759.4638999999],[264566.3672000002,670753.1656999998],[264588.25009999983,670725.6619000006],[264626.3663999997,670672.4706999995],[264660.9221999999,670616.9004999995],[264691.7695000004,670559.1892000008],[264695.7380999997,670551.0489000008],[264715.44269999955,670510.1627999991],[264715.4955000002,670510.0995000005],[264741.05590000004,670478.1627999991],[264779.1721999999,670424.9715999998],[264813.7280000001,670369.4013999999],[264844.3499999996,670312.1116000004],[264876.2993000001,670315.2583000008],[264941.70239999983,670317.3993999995],[265007.1054999996,670315.2583000008],[265072.22860000003,670308.8443],[265136.7927000001,670298.1846999992],[265200.52139999997,670283.3252000008],[265263.14190000016,670264.3295000009],[265324.3858000003,670241.2788999993],[265383.9911000002,670214.2720999997],[265441.70239999983,670183.4247999992],[265497.2725999998,670148.8690000009],[265550.4638,670110.7526999991],[265601.0482000001,670069.2391999997],[265648.8092,670024.5062000006],[265693.5422,669976.7452000007],[265735.0557000004,669926.1608000007],[265773.17200000025,669872.9695999995],[265807.72780000046,669817.3993999995],[265838.5751,669759.6881000008],[265865.58189999964,669700.0828000009],[265888.6325000003,669638.8388999999],[265907.62820000015,669576.2183999997],[265922.4877000004,669512.4897000007],[265933.1473000003,669447.9255999997],[265939.3459999999,669386.0086000003],[265943.71520000044,669322.4758000001],[265949.88989999983,669233.6502],[265950.1562000001,669229.7062999997],[265952.29729999974,669164.3032000009],[265950.1562000001,669098.9001000002],[265944.09449999966,669037.3545999993],[265952.78309999965,669034.0844],[266012.3883999996,669007.0776000004],[266070.09970000014,668976.2302999999],[266125.6699000001,668941.6744999997],[266178.86110000033,668903.5581999999],[266229.4455000004,668862.0447000004],[266277.2065000003,668817.3116999995],[266321.9395000003,668769.5506999996],[266363.45299999975,668718.9662999995],[266369.9360999996,668709.9191999994],[266398.40380000044,668727.6215000004],[266456.11510000005,668758.4688000008],[266515.7204,668785.4756000005],[266576.9643000001,668808.5262000002],[266639.5848000003,668827.5219],[266703.31350000016,668842.3814000003],[266767.87760000024,668853.0409999993],[266833.00069999974,668859.4550000001],[266859.3493999997,668860.8332000002],[266860.8979000002,668860.8936999999],[266862.41420000046,668861.2131999992],[266873.5080000004,668863.4853000008],[266938.07210000046,668874.1448999997],[267003.19519999996,668880.5589000005],[267063.63829999976,668882.6876999997],[267066.42590000015,668882.7015000004],[267069.2008999996,668882.9666000009],[267098.8957000002,668885.3575999998],[267119.4210000001,668886.4912],[267136.63709999993,668887.2645999994],[267181.51489999983,668888.2720999997],[267246.9179999996,668886.1309999991],[267274.1161000002,668883.4806999993],[267324.4615000002,668902.4293000009],[267387.0820000004,668921.4250000007],[267450.81070000026,668936.2844999991],[267515.37480000034,668946.9441],[267580.49789999984,668953.3581000008],[267645.9009999996,668955.4991999995],[267711.3041000003,668953.3581000008],[267734.91110000014,668951.5298999995],[267735.7807,668951.4521999992],[267736.6347000003,668951.6341999993],[267750.0075000003,668954.3892999999],[267752.64159999974,668954.9096000008],[268103.4441999998,669023.7098999992],[268165.3742000004,669033.8491999991],[268230.49729999993,669040.2631999999],[268295.9003999997,669042.4043000005],[268361.3035000004,669040.2631999999],[268426.4265999999,669033.8491999991],[268490.99069999997,669023.1896000002],[268554.7193999998,669008.3300999999],[268617.3399,668989.3344],[268678.58380000014,668966.2838000003],[268738.1891000001,668939.2770000007],[268795.9003999997,668908.4297000002],[268851.47059999965,668873.8739],[268892.4464999996,668844.9831000008],[268898.6468000002,668840.3745000008],[268910.86209999956,668831.1490000002],[268953.58139999956,668796.0902999993],[268988.00239999965,668794.9634000007],[269053.1255000001,668788.5493999999],[269117.68960000016,668777.8897999991],[269164.1498999996,668767.4926999994],[269165.9944000002,668767.0336000007],[269167.8842000002,668766.8297000006],[269191.12310000043,668764.0464999992],[269255.6871999996,668753.3869000003],[269319.4159000004,668738.5274],[269382.03639999963,668719.5317000002],[269443.28029999975,668696.4811000004],[269502.8855999997,668669.4743000008],[269560.59690000024,668638.6270000003],[269616.1671000002,668604.0712000001],[269626.5136000002,668597.0639999993],[269626.73610000033,668596.9112999998],[269626.9978,668596.9771999996],[269676.3093999997,668608.0885000005],[269740.87349999975,668618.7480999995],[269805.9966000002,668625.1621000003],[269871.39969999995,668627.3032000009],[269936.8027999997,668625.1621000003],[270001.92590000015,668618.7480999995],[270066.4900000002,668608.0885000005],[270130.2187000001,668593.2290000003],[270192.8392000003,668574.2333000004],[270254.0831000004,668551.1827000007],[270313.68840000033,668524.1758999992],[270371.39969999995,668493.3286000006],[270426.9698999999,668458.7728000004],[270480.16110000014,668420.6565000005],[270530.7455000002,668379.1429999992],[270578.50650000013,668334.4100000001],[270623.23950000014,668286.6490000002],[270664.75299999956,668236.0646000002],[270702.86930000037,668182.8734000009],[270737.42509999964,668127.3032000009],[270768.27240000013,668069.5919000003],[270792.8694000002,668015.7535999995],[270793.16229999997,668015.0587000009],[270793.6727,668014.5037999991],[270809.5366000002,667996.8419000003],[270851.05009999964,667946.2575000003],[270889.16640000045,667893.0662999991],[270923.7221999997,667837.4960999992],[270954.5695000002,667779.7848000005],[270981.57629999984,667720.1795000006],[271004.62689999957,667658.9355999995],[271023.62260000035,667596.3150999993],[271038.4820999997,667532.5864000004],[271042.98649999965,667508.3882999998],[271063.5909000002,667389.5922999997],[271069.7461000001,667349.2262999993],[271076.1601,667284.1031999998],[271078.30119999964,667218.7000999991],[271076.1601,667153.2970000003],[271069.7461000001,667088.1739000008],[271059.0865000002,667023.6097999997],[271044.22699999996,666959.8811000008],[271036.3130000001,666931.9714000002],[270979.75430000015,666742.9987000003],[270989.1616000002,666662.7354000006],[270992.0725999996,666639.7513999995],[270992.2664999999,666638.2105999999],[270993.6682000002,666627.0037999991],[270999.25850000046,666568.2981000002],[271001.3996000001,666502.8949999996],[271001.3996000001,666473.4035],[270999.9497999996,666419.5755000003],[270998.54810000025,666393.5728999991],[270998.53160000034,666393.2665999997],[270981.1344999997,666072.3684999999],[270980.45969999954,666061.0997000001],[270979.60840000026,666050.8620999996],[270980.62569999974,666048.3827],[270981.76439999975,666045.5807000007],[270983.12959999964,666042.8817999996],[270987.67349999957,666033.7846000008],[271014.6803000001,665974.1793000009],[271037.73089999985,665912.9353999998],[271056.7265999997,665850.3148999996],[271058.0678000003,665845.1704999991],[271101.01300000027,665806.7335999999],[271141.20720000006,665768.7043999992],[271185.94020000007,665720.9433999993],[271227.4537000004,665670.3589999992],[271265.5700000003,665617.1677999999],[271300.1257999996,665561.5976],[271330.97310000006,665503.8862999994],[271357.9798999997,665444.2809999995],[271381.03050000034,665383.0371000003],[271400.0262000002,665320.4166000001],[271414.88570000045,665256.6878999993],[271425.54530000035,665192.1238000002],[271431.9593000002,665127.0007000007],[271434.1003999999,665061.5976],[271431.9593000002,664996.1944999993],[271425.54530000035,664931.0713999998],[271414.88570000045,664866.5073000006],[271400.0262000002,664802.7785999998],[271381.03050000034,664740.1580999997],[271357.9798999997,664678.9142000005],[271330.97310000006,664619.3089000005],[271300.1257999996,664561.5976],[271265.5700000003,664506.0274],[271227.4537000004,664452.8362000007],[271185.94020000007,664402.2518000007],[271141.20720000006,664354.4908000007],[271093.4462000001,664309.7577999998],[271042.8618000001,664268.2443000004],[270989.67059999984,664230.1280000005],[270934.1003999999,664195.5722000003],[270912.75370000023,664183.5935999993],[270908.1950000003,664181.1084000003],[270868.8722000001,664152.9300999995],[270813.30200000014,664118.3742999993],[270804.0602000002,664113.4343999997],[270834.4528000001,664076.2653000001],[270835.5723000001,664074.8036000002],[270868.37119999994,664031.8958999999],[270905.3679999998,663980.1664000005],[270912.6179999998,663969.1597000007],[270940.01630000025,663926.9616999999],[270967.32210000046,663882.3981999997],[270976.11849999987,663866.8431000002],[271002.42030000035,663819.3466999996],[271024.47119999956,663777.1905000005],[271031.2807,663763.1055999994],[271055.6860999996,663711.6004000008],[271075.8833999997,663666.0800000001],[271086.3967000004,663639.6411000006],[271100.6935999999,663602.1417999994],[271113.23089999985,663567.3367999997],[271132.2265999997,663504.7162999995],[271133.00409999955,663501.7972999997],[271155.9006000003,663415.3021000009],[271169.98259999976,663354.4923999999],[271180.64219999965,663289.9283000007],[271187.05620000046,663224.8051999994],[271189.1973000001,663159.4021000005],[271187.05620000046,663093.9989999998],[271180.64219999965,663028.8759000003],[271169.98259999976,662964.3117999993],[271155.12310000043,662900.5831000004],[271136.12739999965,662837.9626000002],[271113.0767999999,662776.7186999992],[271086.0700000003,662717.1133999992],[271055.2226999998,662659.4021000005],[271020.6668999996,662603.8319000006],[270982.5505999997,662550.6406999994],[270941.0371000003,662500.0562999994],[270896.3041000003,662452.2952999994],[270848.54310000036,662407.5623000003],[270797.9587000003,662366.0488000009],[270744.7675000001,662327.9324999992],[270689.1973000001,662293.3767000008],[270631.48599999957,662262.5294000003],[270571.88069999963,662235.5226000007],[270510.63680000044,662212.4719999991],[270448.01630000025,662193.4762999993],[270445.0761000002,662192.6931999996],[270398.58220000006,662180.3867000006],[270355.74370000046,662170.0522000007],[270296.14020000026,662157.0559],[270278.19020000007,662153.3139999993],[270213.6261,662142.6544000003],[270148.50299999956,662136.2403999995],[270083.0998999998,662134.0993000008],[270071.6969999997,662134.0993000008],[270006.29389999993,662136.2403999995],[269941.17080000043,662142.6544000003],[269899.16789999977,662149.1079999991],[269876.4277999997,662145.3535999991],[269811.3047000002,662138.9396000002],[269745.90160000045,662136.7984999996],[269680.49849999975,662138.9396000002],[269615.37540000025,662145.3535999991],[269550.8113000002,662156.0131999999],[269512.2390999999,662165.0069999993],[269496.08160000015,662158.0248000007],[269434.83770000003,662134.9741999991],[269372.21719999984,662115.9784999993],[269320.81960000005,662103.9942000005],[269312.6727999998,662086.0140000004],[269281.82550000027,662028.3026999999],[269247.26970000006,661972.7324999999],[269209.1534000002,661919.5413000006],[269167.63989999983,661868.9569000006],[269122.9068999998,661821.1959000006],[269075.1458999999,661776.4628999997],[269060.0219999999,661763.4640999995],[269044.22449999955,661750.1579],[269040.0318999998,661746.7864999995],[269030.0733000003,661724.8073999994],[269014.51300000027,661694.5621000007],[269013.25009999983,661692.2065999992],[269012.2153000003,661689.7423],[268987.81379999965,661636.1138000004],[268974.30840000045,661608.6117000002],[268973.56989999954,661607.1110999994],[268942.7226,661549.3998000007],[268930.3953999998,661528.6317999996],[268929.8909,661527.8047000002],[268929.6255000001,661526.8730999995],[268914.83380000014,661479.4614000004],[268891.7832000004,661418.2174999993],[268884.5641999999,661401.5388999991],[268888.54959999956,661365.4283000007],[268889.6462000003,661353.1317999996],[268891.4581000004,661329.7075999994],[268893.59920000006,661264.3045000006],[268891.4581000004,661198.9013999999],[268890.46079999954,661185.1403999999],[268889.1579999998,661168.7350999992],[268883.7412999999,661117.3729999997],[268873.0817,661052.8089000005],[268858.2221999997,660989.0801999997],[268848.3624999998,660954.7480999995],[268843.3660000004,660938.4528000001],[268834.23000000045,660910.1644000001],[268811.1793999998,660848.9204999991],[268784.17260000017,660789.3151999991],[268766.24619999994,660754.6831999999],[268756.74789999984,660737.1782000009],[268743.8269999996,660714.0988999996],[268709.2712000003,660658.5286999997],[268671.15490000043,660605.3375000004],[268629.6414000001,660554.7531000003],[268584.9084000001,660506.9921000004],[268537.14740000013,660462.2590999994],[268519.70799999963,660447.3158999998],[268512.30399999954,660441.1176999994],[268479.159,660414.5473999996],[268425.96779999975,660376.4310999997],[268370.3975999998,660341.8752999995],[268362.04729999974,660337.1075999998],[268351.24619999994,660331.0092999991],[268301.88520000037,660304.9297000002],[268242.27990000043,660277.9229000006],[268181.0360000003,660254.8723000009],[268149.3739,660244.7083],[268135.17590000015,660240.4096000008],[268104.21750000026,660231.5778999999],[268040.4888000004,660216.7183999997],[267975.9247000003,660206.0588000007],[267910.8015999999,660199.6447999999],[267881.6305999998,660198.1602999996],[267862.3289000001,660197.4605],[267826.0968000004,660196.8038999997],[267760.6936999997,660198.9450000003],[267728.7588999998,660201.5525000002],[267691.9611999998,660205.1513999999],[267658.7729000002,660208.9579000007],[267594.20880000014,660219.6174999997],[267576.8990000002,660223.2200000007],[267549.3027999997,660229.2182999998],[267502.8838999998,660240.4752999991],[267440.2633999996,660259.4710000008],[267393.60809999984,660276.6128000002],[267378.7093000002,660282.5110999998],[267364.12069999985,660288.4199000001],[267357.93939999957,660291.0044999998],[267355.3339999998,660292.1042],[267301.91000000015,660316.5263999999],[267299.30539999995,660317.8155000005],[267284.0108000003,660325.4133000001],[267282.4051999999,660326.2127],[267280.40160000045,660327.2125000004],[267226.90050000045,660355.9713000003],[267171.33029999956,660390.5271000005],[267165.97640000004,660394.1294999998],[267135.2718000002,660414.9334999993],[267087.43450000044,660449.4474],[267036.8501000004,660490.9608999994],[267011.59279999975,660513.8847000003],[267010.3364000004,660515.0647],[267008.9166000001,660516.0421999991],[266967.2379999999,660546.3497000001],[266960.2748999996,660551.7414999995],[266910.87870000023,660590.3403999992],[266867.25739999954,660626.4620999992],[266859.17339999974,660633.6292000003],[266856.13269999996,660636.3544999994],[266852.9408,660638.9010000005],[266817.2511999998,660668.7599999998],[266812.02419999987,660673.3762999997],[266809.8655000003,660675.2961999997],[266807.54870000016,660677.0218000002],[266796.1365,660685.6498000007],[266745.5521,660727.1633000001],[266735.9275000002,660736.0195000004],[266703.6069,660754.2259],[266694.4014999997,660759.4758000001],[266638.8312999997,660794.0316000003],[266585.6401000004,660832.1479000002],[266552.9743999997,660858.3171999995],[266539.3504999997,660869.7078000009],[266531.5373999998,660866.7672000006],[266472.24930000026,660848.7822999991],[266463.3016999997,660841.8509999998],[266459.6632000003,660839.0459000003],[266423.8169999998,660812.7846000008],[266349.71860000025,660760.9893999994],[266332.3735999996,660749.1344000008],[266300.45419999957,660728.6710000001],[266259.45150000043,660703.4682],[266235.80069999956,660689.3758000005],[266192.88129999954,660665.9759],[266167.9812000003,660653.1796000004],[266153.18929999974,660645.7322000004],[266093.5839999998,660618.7254000008],[266055.74810000043,660603.9462000001],[266005.65110000037,660585.5414000005],[265982.2430999996,660577.2699999996],[265919.62260000035,660558.2742999997],[265879.8842000002,660548.4933000002],[265857.17729999963,660543.3947999999],[265833.1869999999,660538.3162999991],[265768.62289999984,660527.6567000002],[265703.49980000034,660521.2426999994],[265646.49729999993,660519.1369000003],[265622.70210000034,660518.9370000008],[265614.30150000006,660518.9016999993],[265548.8984000003,660521.0427999999],[265483.77529999986,660527.4568000007],[265473.87480000034,660528.8105999995],[265421.7112999996,660536.2091000006],[265418.5005999999,660535.9201999996],[265394.30179999955,660534.0390000008],[265346.70550000016,660532.0565000009],[265325.2221999997,660531.6738000009],[265256.2781999996,660527.2106999997],[265209.32749999966,660519.4591000006],[265144.20440000016,660513.0450999998],[265140.8158,660512.8288000003],[265138.3968000002,660512.6784000006],[265136.0070000002,660512.2745999992],[265133.52190000005,660511.9012000002],[265124.79110000003,660507.5317000002],[265113.41449999996,660502.0105000008],[265109.90440000035,660500.3343000002],[265106.50289999973,660498.4474],[265082.99260000046,660485.8124000002],[265073.72190000024,660480.9883999992],[265049.77190000005,660463.8260999992],[265034.4598000003,660453.7962999996],[265023.55979999993,660446.7982999999],[264983.3016999997,660422.2722999994],[264958.14300000016,660408.2262999993],[264880.94519999996,660366.5743000004],[264856.74179999996,660344.1629000008],[264843.45019999985,660332.7112000007],[264827.2569000004,660319.0051000006],[264789.96410000045,660288.9432999995],[264736.7729000002,660250.8269999996],[264681.20270000026,660216.2711999994],[264660.91229999997,660204.8693000004],[264553.0092000002,660145.8761999998],[264515.58829999994,660126.4308000002],[264489.85670000035,660114.1939000003],[264437.25320000015,660090.0908000004],[264403.3794999998,660075.3209000006],[264342.1355999997,660052.2703000009],[264286.59420000017,660035.1993000004],[264269.19710000046,660030.4006999992],[264262.1179999998,660028.4759999998],[264198.3892999999,660013.6164999995],[264133.82519999985,660002.9569000006],[264075.8239000002,659997.0351999998],[264064.8250000002,659996.2354000006],[264057.70320000034,659995.7431000005],[263992.30009999964,659993.602],[263926.8969999999,659995.7431000005],[263861.7739000004,660002.1570999995],[263818.1355999997,660008.8853999991],[263766.1339999996,660018.0828000009],[263745.2082000002,660022.0141000003],[263681.47950000037,660036.8736000005],[263623.32359999977,660054.3654999994],[263588.0264999997,660066.1621000003],[263583.5619000001,660067.6658999994],[263522.31799999997,660090.7164999992],[263462.71270000003,660117.7233000007],[263428.7259999998,660135.2997999992],[263403.4219000004,660149.0058999993],[263379.6973000001,660162.2766999993],[263324.12710000016,660196.8324999996],[263293.6743999999,660218.0076000001],[263277.7779000001,660229.5043000001],[263255.0394000001,660246.4454999994],[263204.4550000001,660287.9590000007],[263156.69400000013,660332.6919999998],[263111.9610000001,660380.4529999997],[263106.6051000003,660386.6107000001],[263059.5011,660441.2150999997],[263023.3435000004,660485.6417999994],[262985.2271999996,660538.8330000006],[262950.67140000034,660594.4032000005],[262939.7070000004,660613.8942000009],[262924.80819999985,660641.0864000004],[262904.92530000024,660679.3067000005],[262893.0689000003,660704.2090000007],[262879.4726999998,660733.8104999997],[262864.3223000001,660768.5134999994],[262841.2717000004,660829.7574000005],[262827.05680000037,660875.1527999993],[262809.6514999997,660935.7555],[262804.87069999985,660952.9805999994],[262791.89460000023,661008.6316999998],[262764.6054999996,661005.9440000001],[262699.20239999983,661003.8028999995],[262633.7993000001,661005.9440000001],[262632.2536000004,661006.0464999992],[262617.35479999986,661007.0461999997],[262553.7774,661013.3576999996],[262489.21329999994,661024.0173000004],[262484.1645999998,661025.0351],[262470.4612999996,661027.8343000002],[262411.7812999999,661041.6760000009],[262349.1607999997,661060.6717000008],[262287.9168999996,661083.7223000005],[262266.18539999984,661093.0262000002],[262254.8814000003,661098.0247000009],[262217.0076000001,661115.7276000008],[262159.2962999996,661146.5748999994],[262103.72609999962,661181.1306999996],[262074.41469999962,661201.4815999996],[262003.41650000028,661252.6769999992],[261979.53670000006,661270.4423999991],[261957.44180000015,661287.8960999995],[261930.05150000006,661310.1660999991],[261908.11089999974,661326.2780000009],[261891.2402999997,661338.9428000003],[261840.65589999966,661380.4562999997],[261838.58530000038,661382.3504000008],[261829.9782999996,661388.8976000007],[261826.6403000001,661391.4477999993],[261776.05590000004,661432.9613000005],[261775.92179999966,661433.0789000001],[261753.017,661453.1731000002],[261751.31909999996,661454.6660999991],[261731.9729000004,661471.7159000002],[261709.6705,661455.1285999995],[261668.87399999984,661425.727],[261639.77130000014,661405.5264999997],[261584.20110000018,661370.9706999995],[261526.48979999963,661340.1234000009],[261519.8189000003,661336.8642999995],[261500.81400000025,661327.6668999996],[261465.99629999977,661312.0468000006],[261467.29739999957,661272.3023000006],[261465.15629999992,661206.8991999999],[261463.4807000002,661189.8866000008],[261527.08839999977,661179.3849],[261590.81709999964,661164.5253999997],[261653.43759999983,661145.5296999998],[261714.68149999995,661122.4791000001],[261774.28679999989,661095.4723000005],[261831.99810000043,661064.625],[261887.5683000004,661030.0691999998],[261940.7594999997,660991.9528999999],[261991.34389999975,660950.4394000005],[262039.1048999997,660905.7063999996],[262083.8378999997,660857.9453999996],[262125.35140000004,660807.3609999996],[262163.4676999999,660754.1698000003],[262198.0235000001,660698.5996000003],[262228.8707999997,660640.8882999998],[262255.87760000024,660581.2829999998],[262278.92819999997,660520.0391000006],[262297.9238999998,660457.4186000004],[262312.7834000001,660393.6898999996],[262323.44299999997,660329.1258000005],[262328.2056999998,660285.6082000006],[262328.3211000003,660284.2862999998],[262328.6935999999,660283.0127000008],[262333.07909999974,660267.5587000009],[262347.8789999997,660213.7641000003],[262349.62870000023,660207.3202],[262364.48819999956,660143.5914999992],[262364.85089999996,660141.7591999993],[262376.74849999975,660081.3564999998],[262377.18090000004,660079.1479000002],[262388.78170000017,660019.5449000001],[262398.4923999999,659960.1842],[262405.6553999996,659906.2642999999],[262407.6129999999,659894.6895000003],[262425.62349999975,659835.3167000003],[262440.483,659771.5879999995],[262451.1425999999,659707.0239000004],[262457.5565999998,659641.9008000009],[262459.46640000027,659598.0066],[262463.92729999963,659390.6535],[262477.5684000002,659382.1709000003],[262530.75960000046,659344.0546000004],[262581.3439999996,659302.5410999991],[262629.10500000045,659257.8081],[262673.83800000045,659210.0471000001],[262715.3514999999,659159.4627],[262753.46779999975,659106.2715000007],[262788.02359999996,659050.7013000008],[262818.87090000045,658992.9900000002],[262845.87770000007,658933.3847000003],[262868.9282999998,658872.1407999992],[262887.92399999965,658809.5203000009],[262902.7834999999,658745.7916000001],[262913.4430999998,658681.2274999991],[262919.8570999997,658616.1043999996],[262921.99820000026,658550.7013000008],[262919.8570999997,658485.2982000001],[262913.4430999998,658420.1751000006],[262902.7834999999,658355.6109999996],[262887.92399999965,658291.8823000006],[262868.9282999998,658229.2618000004],[262845.87770000007,658168.0178999994],[262818.87090000045,658108.4125999995],[262788.02359999996,658050.7013000008],[262753.46779999975,657995.1311000008],[262715.3514999999,657941.9398999996],[262673.83800000045,657891.3554999996],[262629.10500000045,657843.5944999997],[262581.3439999996,657798.8615000006],[262530.75960000046,657757.3479999993],[262477.5684000002,657719.2316999994],[262463.3381000003,657709.8973999992],[262359.73890000023,657643.1964999996],[262318.3990000002,657617.9749999996],[262260.68769999966,657587.1276999991],[262250.95469999965,657582.3932000007],[262160.63069999963,657539.0592999998],[261904.00299999956,657339.9015999995],[261903.98979999963,657339.8913000003],[261888.40340000018,657327.7949999999],[261884.63439999986,657324.8841999993],[261555.96789999958,657072.3101000004],[261562.7282999996,657050.0240000002],[261577.58779999986,656986.2952999994],[261588.24739999976,656921.7312000003],[261594.66139999963,656856.6081000008],[261596.80250000022,656791.2050000001],[261594.66139999963,656725.8018999994],[261588.24739999976,656660.6787999999],[261577.58779999986,656596.1147000007],[261562.7282999996,656532.3859999999],[261543.73259999976,656469.7654999997],[261520.68200000003,656408.5216000006],[261493.6752000004,656348.9163000006],[261462.82789999992,656291.2050000001],[261456.48739999998,656280.3803000003],[261455.66370000038,656278.9940000009],[261455.07409999985,656277.4931000005],[261448.18319999985,656260.4138999991],[261423.1640999997,656204.9406000003],[261375.78789999988,656087.7636999991],[261372.57600000035,656079.9156],[261345.5691999998,656020.3103],[261314.72190000024,655962.5989999995],[261280.16610000003,655907.0287999995],[261242.04980000015,655853.8376000002],[261200.5362999998,655803.2532000002],[261155.8032999998,655755.4922000002],[261108.04229999986,655710.7591999993],[261057.4578999998,655669.2456999999],[261004.26669999957,655631.1294],[260948.6964999996,655596.5735999998],[260890.9852,655565.7262999993],[260831.37990000006,655538.7194999997],[260770.13599999994,655515.6688999999],[260707.51549999975,655496.6732000001],[260643.78679999989,655481.8136999998],[260579.2226999998,655471.1541000009],[260514.0996000003,655464.7401],[260448.6964999996,655462.5989999995]]]}}]}
